STARLINK-36724          
1 67914U 26036L   26062.58336806 -.01604160  00000+0 -78290-2 0  9996
2 67914  42.9940 287.1202 0001727 266.2127 112.2730 15.84250470  2668
STARLINK-36723          
1 67915U 26036M   26062.58336806 -.01607096  00000+0 -79201-2 0  9991
2 67915  42.9943 287.1303 0001937 266.5615 108.0867 15.84052142  2662
STARLINK-36721          
1 67916U 26036N   26062.58336806 -.01606470  00000+0 -77936-2 0  9990
2 67916  42.9944 287.1107 0001725 268.7950 113.6718 15.84377806  2661
STARLINK-36722          
1 67917U 26036P   26062.58336806 -.01599418  00000+0 -76896-2 0  9998
2 67917  42.9944 287.1011 0002031 264.5030 121.8015 15.84546406  2665
STARLINK-36341          
1 67918U 26036Q   26062.58336806 -.01600745  00000+0 -75744-2 0  9996
2 67918  42.9942 287.0816 0001746 266.4834 127.4539 15.84879401  2668
STARLINK-36663          
1 67919U 26036R   26062.58336806 -.01600350  00000+0 -76335-2 0  9996
2 67919  42.9945 287.0914 0001796 265.8159 124.3179 15.84713643  2660
STARLINK-36375          
1 67920U 26036S   26062.58336806 -.01603004  00000+0 -75328-2 0  9998
2 67920  42.9944 287.0722 0001706 269.9196 127.8590 15.85025691  2660
STARLINK-36405          
1 67921U 26036T   26062.58336806 -.01595941  00000+0 -74302-2 0  9990
2 67921  42.9944 287.0631 0001810 264.8746 136.5976 15.85201325  2666
STARLINK-36383          
1 67922U 26036U   26062.58336806 -.01600552  00000+0 -74042-2 0  9997
2 67922  42.9946 287.0535 0001749 264.9278 140.3660 15.85341101  2664
STARLINK-36406          
1 67923U 26036V   26062.58336806 -.01598573  00000+0 -73334-2 0  9990
2 67923  42.9945 287.0442 0001796 269.4151 139.5670 15.85507184  2669
STARLINK-36714          
1 67924U 26036W   26062.58336806 -.01600172  00000+0 -72817-2 0  9995
2 67924  42.9946 287.0349 0001731 268.4623 144.1781 15.85675168  2662
STARLINK-36726          
1 67925U 26036X   26062.58336806 -.01596774  00000+0 -71984-2 0  9992
2 67925  42.9945 287.0260 0001653 268.0038 148.1776 15.85860224  2660
STARLINK-36758          
1 67926U 26036Y   26062.58336806 -.01593405  00000+0 -71280-2 0  9990
2 67926  42.9944 287.0166 0001715 265.9833 153.8552 15.86009570  2668
STARLINK-36728          
1 67927U 26036Z   26062.58336806 -.01596884  00000+0 -70513-2 0  9993
2 67927  42.9944 286.9976 0001739 272.3484 154.9194 15.86278378  2664
STARLINK-36771          
1 67928U 26036AA  26062.58336806 -.01600064  00000+0 -71229-2 0  9995
2 67928  42.9943 287.0066 0001659 271.1497 152.5349 15.86121201  2666
STARLINK-36809          
1 67929U 26036AB  26062.58336806 -.01597762  00000+0 -70083-2 0  9993
2 67929  42.9943 286.9885 0001685 265.4377 165.4966 15.86414982  2665
